ONEWEB-0427             
1 50499U 21132AG  24330.35289943 -.00000381  00000+0 -10001-2 0  9998
2 50499  87.9096  88.6306 0001722 109.4425 250.6893 13.18686050146648
ONEWEB-0429             
1 50500U 21132AH  24330.41612762 -.00000399  00000+0 -10446-2 0  9999
2 50500  87.9105  88.6343 0001542  92.4828 267.6481 13.18685202146628
ONEWEB-0430             
1 50501U 21132AJ  24330.40509093  .00000079  00000+0  16701-3 0  9995
2 50501  87.9100  88.6360 0001234 101.6936 258.4334 13.18687182146662
ONEWEB-0432             
1 50502U 21132AK  24330.36081929  .00000123  00000+0  27941-3 0  9992
2 50502  87.9099  88.6355 0001575 140.3450 219.7797 13.18687389146610
ONEWEB-0440             
1 50503U 21132AL  24330.34817961  .00000078  00000+0  16477-3 0  9995
2 50503  87.9104  88.6315 0001945  91.0141 269.1214 13.18686263146606
ONEWEB-0450             
1 50504U 21132AM  24330.79724769 -.00000056  00000+0 -17532-3 0  9999
2 50504  87.9105  88.5703 0001416  92.6225 267.5069 13.18686712147982
ONEWEB-0410             
1 51622U 22012A   24330.45538311  .00000039  00000+0  68488-4 0  9994
2 51622  87.9076 119.1440 0002683 123.5833 236.5555 13.17648981138808
ONEWEB-0411             
1 51623U 22012B   24330.45505080 -.00000731  00000+0 -21306-2 0  9999
2 51623  87.8893 149.5195 0000849  80.9812 279.1411 13.10372606134805
